BEIDOU-3 IGSO-1         
1 44204U 19023A   26060.32832569 -.00000199  00000+0  00000+0 0  9999
2 44204  58.5492  38.7573 0026000 236.5602 121.2372  1.00271445  6125
BEIDOU-2 G8             
1 44231U 19027A   26060.49296072 -.00000266  00000+0  00000+0 0  9999
2 44231   1.8600  74.7272 0009232 268.4054 138.1249  1.00268458 25004
COSMOS 2534 [GLONASS-M] 
1 44299U 19030A   26059.72043316 -.00000008  00000+0  00000+0 0  9996
2 44299  64.3688 196.2655 0009610 280.7620 166.1530  2.13102114 52611
BEIDOU-3 IGSO-2         
1 44337U 19035A   26057.68879618 -.00000176  00000+0  00000+0 0  9995
2 44337  55.2338 159.8353 0038734 206.4752 153.7223  1.00247364 24561
NAVSTAR 78 (USA 293)    
1 44506U 19056A   26060.19755562 -.00000096  00000+0  00000+0 0  9998
2 44506  55.6862 335.4369 0058016 198.2399 333.4311  2.00568051 47902
BEIDOU-3 M24            
1 44542U 19061A   26060.31434985 -.00000031  00000+0  00000+0 0  9990
2 44542  54.3998 186.3652 0008651  22.0339 337.9537  1.86228845 43782
BEIDOU-3 M23            
1 44543U 19061B   26060.10867029 -.00000031  00000+0  00000+0 0  9997
2 44543  54.3976 186.3407 0005102  14.1129 120.2476  1.86227192 43783
EUTELSAT 5 WEST B       
1 44624U 19067A   26060.37486590 -.00000061  00000+0  00000+0 0  9995
2 44624   0.1009 306.7245 0003184  39.6161 302.7357  1.00271952 23358
BEIDOU-3 IGSO-3         
1 44709U 19073A   26059.01325398 -.00000145  00000+0  00000+0 0  9996
2 44709  54.9854 282.0779 0040377 189.1116 170.8905  1.00270708 23363
BEIDOU-3 M22            
1 44793U 19078A   26059.07985671 -.00000039  00000+0  00000+0 0  9998
2 44793  54.0347 303.6688 0007221  34.9561 325.1493  1.86231871 42613
BEIDOU-3 M21            
1 44794U 19078B   26059.21932407 -.00000040  00000+0  00000+0 0  9996
2 44794  54.0076 303.6269 0005661  36.1333 323.9632  1.86227562 42629
COSMOS 2544 [GLONASS-M] 
1 44850U 19088A   26060.09921565  .00000041  00000+0  00000+0 0  9991
2 44850  65.5037  77.3374 0015747 259.2375 100.6416  2.13101810 48419
BEIDOU-3 M19            
1 44864U 19090A   26060.11193512 -.00000001  00000+0  00000+0 0  9992
2 44864  56.4646  66.3615 0020387 291.2005 143.7912  1.86231174 42225
BEIDOU-3 M20            
1 44865U 19090B   26060.40095270 -.00000002  00000+0  00000+0 0  9998
2 44865  56.4665  66.3862 0017820 302.6987  55.6736  1.86231096 42201
BEIDOU-3 G2             
1 45344U 20017A   26060.17778502 -.00000157  00000+0  00000+0 0  9993
2 45344   2.6474  45.5064 0002681 298.6811 318.8170  1.00271121 22176
COSMOS 2545 [GLONASS-M] 
1 45358U 20018A   26055.13290572 -.00000047  00000+0  00000+0 0  9993
2 45358  64.4229 316.3952 0008661 251.9262 108.0301  2.13102520 46257
BEIDOU-3 G3             
1 45807U 20040A   26059.61329310 -.00000370  00000+0  00000+0 0  9996
2 45807   2.1795  67.0969 0004911 316.5656 105.9394  1.00264554 20981
NAVSTAR 79 (USA 304)    
1 45854U 20041A   26060.27967270 -.00000067  00000+0  00000+0 0  9999
2 45854  56.6039  33.1302 0061323 205.2440 327.9609  2.00560506 41871
GALAXY 30 (G-30)        
1 46114U 20056C   26060.40670370  .00000019  00000+0  00000+0 0  9998
2 46114   0.0191 126.8337 0002071 227.9721 185.7736  1.00271297 20210
COSMOS 2547 [GLONASS-K] 
1 46805U 20075A   26060.48326888 -.00000013  00000+0  00000+0 0  9991
2 46805  64.6000 196.0666 0006642 229.2536 130.6482  2.13100066 41617
NAVSTAR 80 (USA 309)    
1 46826U 20078A   26059.81602991  .00000003  00000+0  00000+0 0  9992
2 46826  54.0030 215.1712 0068048 204.2108 327.3641  2.00565486 39332
NAVSTAR 81 (USA 319)    
1 48859U 21054A   26059.83435660 -.00000098  00000+0  00000+0 0  9999
2 48859  55.2227 336.8175 0023933 232.1967 136.7560  2.00575560 34580
QZS-1R (MICHIBIKI-1R)   
1 49336U 21096A   26059.40544135 -.00000260  00000+0  00000+0 0  9998
2 49336  37.2352  81.1903 0746892 269.6206  87.2096  1.00292063 15920
GSAT0223 (GALILEO 27)   
1 49809U 21116A   26048.03988929 -.00000078  00000+0  00000+0 0  9993
2 49809  57.2005 344.9238 0002865 278.1950 264.6358  1.70475508 26130
GSAT0224 (GALILEO 28)   
1 49810U 21116B   26054.89517960 -.00000088  00000+0  00000+0 0  9990
2 49810  57.1984 344.7369 0002182 291.9502 250.7131  1.70475193 26278
COSMOS 2557 [GLONASS-K] 
1 52984U 22075A   26060.17911170 -.00000049  00000+0  00000+0 0  9997
2 52984  64.3612 318.2927 0011822 283.1445  76.7771  2.13101670 28416
COSMOS 2559 [GLONASS-K] 
1 54031U 22130A   26059.99848280 -.00000049  00000+0  00000+0 0  9993
2 54031  64.3338 318.3857 0010601 182.1671 177.8809  2.13101169 26384
COSMOS 2564 [GLONASS-M] 
1 54377U 22161A   26060.31127277 -.00000012  00000+0  00000+0 0  9994
2 54377  64.7417 196.2893 0009345 209.1479 150.7597  2.13101880 25339
NAVSTAR 82 (USA 343)    
1 55268U 23009A   26059.76489831 -.00000028  00000+0  00000+0 0  9997
2 55268  55.1093 152.7809 0004758 333.1698  25.1517  2.00549258 23067
BEIDOU-3 G4             
1 56564U 23066A   26060.48586404 -.00000130  00000+0  00000+0 0  9999
2 56564   0.6544 310.4982 0001829 163.9264  19.7943  1.00271975 10315
NVS-01 (IRNSS-1J)       
1 56759U 23076A   26060.46155991 -.00000358  00000+0  00000+0 0  9999
2 56759   2.4258 248.7393 0007624  43.8433 162.3108  1.00275073 10035
